[{"OBJECT_NAME":"STARLINK-4346","OBJECT_ID":"2022-077AG","EPOCH":"2026-03-09T23:20:05.829216","MEAN_MOTION":15.20483722,"ECCENTRICITY":0.00045407,"INCLINATION":97.6378,"RA_OF_ASC_NODE":257.0949,"ARG_OF_PERICENTER":212.0804,"MEAN_ANOMALY":148.0155,"EPHEMERIS_TYPE":0,"CLASSIFICATION_TYPE":"U","NORAD_CAT_ID":53073,"ELEMENT_SET_NO":999,"REV_AT_EPOCH":20134,"BSTAR":0.00030178555,"MEAN_MOTION_DOT":6.523e-5,"MEAN_MOTION_DDOT":0},{"OBJECT_NAME":"COSMOS 1275 DEB","OBJECT_ID":"1981-053HD","EPOCH":"2026-03-09T18:17:25.522944","MEAN_MOTION":15.14979108,"ECCENTRICITY":0.00141099,"INCLINATION":82.7961,"RA_OF_ASC_NODE":77.7837,"ARG_OF_PERICENTER":120.1568,"MEAN_ANOMALY":240.1065,"EPHEMERIS_TYPE":0,"CLASSIFICATION_TYPE":"U","NORAD_CAT_ID":13809,"ELEMENT_SET_NO":999,"REV_AT_EPOCH":26070,"BSTAR":0.003137092,"MEAN_MOTION_DOT":0.00059087,"MEAN_MOTION_DDOT":0}]
